{
  "type": "FeatureCollection",
  "name": "Hyderabad_Blocked_Roads_Mock",
  "crs": { "type": "name", "properties": { "name": "urn:ogc:def:crs:OGC:1.3:CRS84" } },
  "features": [
    {
      "type": "Feature",
      "id": "br-hyd-01",
      "properties": {
        "road_name": "Moosarambagh Cause Way Bridge",
        "area": "Moosarambagh - Amberpet Corridor",
        "status": "impassable",
        "severity": "critical",
        "reason": "Musi river overtopping causeway by 3.5 feet. Heavy water velocity; barricaded by Traffic Police and NDRF.",
        "reported_at": "2026-10-03T07:30:00Z"
      },
      "geometry": {
        "type": "LineString",
        "coordinates": [
          [78.5080, 17.3735],
          [78.5135, 17.3752],
          [78.5190, 17.3770]
        ]
      }
    },
    {
      "type": "Feature",
      "id": "br-hyd-02",
      "properties": {
        "road_name": "Puranapul Old Bridge Approach",
        "area": "Puranapul - Karwan Junction",
        "status": "impassable",
        "severity": "high",
        "reason": "Structural revetment erosion and water debris blockage. Diverting all ambulances to New Puranapul Bridge.",
        "reported_at": "2026-10-03T08:15:00Z"
      },
      "geometry": {
        "type": "LineString",
        "coordinates": [
          [78.4550, 17.3620],
          [78.4590, 17.3650],
          [78.4630, 17.3670]
        ]
      }
    },
    {
      "type": "Feature",
      "id": "br-hyd-03",
      "properties": {
        "road_name": "Begumpet Airport Underpass",
        "area": "Prakash Nagar - Begumpet Station Link",
        "status": "waterlogged",
        "severity": "high",
        "reason": "Stormwater nala reverse overflow created 4.5 feet water puddle under railway bridge. Heavy dewatering pumps operating.",
        "reported_at": "2026-10-03T09:00:00Z"
      },
      "geometry": {
        "type": "LineString",
        "coordinates": [
          [78.4670, 17.4410],
          [78.4720, 17.4435],
          [78.4770, 17.4460]
        ]
      }
    }
  ]
}
