{
  "type": "FeatureCollection",
  "name": "Hyderabad_Flood_Zones_Mock",
  "crs": { "type": "name", "properties": { "name": "urn:ogc:def:crs:OGC:1.3:CRS84" } },
  "features": [
    {
      "type": "Feature",
      "id": "zone-hyd-01",
      "properties": {
        "zone_code": "FZ-HYD-01",
        "name": "Musi River - Chaderghat to Moosarambagh Basin",
        "severity": "critical",
        "severity_color": "#B42318",
        "water_level_meters": 4.20,
        "danger_threshold_meters": 2.80,
        "evacuation_status": "Mandatory Evacuation Enacted",
        "description": "Critical overflow of Musi River corridor. Residential settlements along riverbed submerged up to 4 meters. Immediate NDRF boat dispatch active."
      },
      "geometry": {
        "type": "Polygon",
        "coordinates": [
          [
            [78.4830, 17.3750],
            [78.5040, 17.3710],
            [78.5180, 17.3680],
            [78.5250, 17.3740],
            [78.5110, 17.3820],
            [78.4890, 17.3850],
            [78.4830, 17.3750]
          ]
        ]
      }
    },
    {
      "type": "Feature",
      "id": "zone-hyd-02",
      "properties": {
        "zone_code": "FZ-HYD-02",
        "name": "Begumpet - Rasoolpura Nala Corridor",
        "severity": "critical",
        "severity_color": "#B42318",
        "water_level_meters": 3.75,
        "danger_threshold_meters": 2.50,
        "evacuation_status": "Mandatory Evacuation Enacted",
        "description": "High water discharge through stormwater nala channel breaching arterial embankments. Airport perimeter and Brahmanwadi submerged."
      },
      "geometry": {
        "type": "Polygon",
        "coordinates": [
          [
            [78.4680, 17.4390],
            [78.4790, 17.4420],
            [78.4880, 17.4490],
            [78.4830, 17.4570],
            [78.4700, 17.4520],
            [78.4630, 17.4450],
            [78.4680, 17.4390]
          ]
        ]
      }
    },
    {
      "type": "Feature",
      "id": "zone-hyd-03",
      "properties": {
        "zone_code": "FZ-HYD-03",
        "name": "Nadeem Colony - Tolichowki Basin",
        "severity": "high",
        "severity_color": "#B54708",
        "water_level_meters": 2.90,
        "danger_threshold_meters": 2.40,
        "evacuation_status": "Voluntary Relocation Advised",
        "description": "Severe localized basin waterlogging due to Shah Hatim Talab overflow. Ground floors of residential apartments waterlogged up to 3 feet."
      },
      "geometry": {
        "type": "Polygon",
        "coordinates": [
          [
            [78.3970, 17.3950],
            [78.4090, 17.3980],
            [78.4150, 17.4060],
            [78.4060, 17.4120],
            [78.3940, 17.4080],
            [78.3910, 17.4010],
            [78.3970, 17.3950]
          ]
        ]
      }
    },
    {
      "type": "Feature",
      "id": "zone-hyd-04",
      "properties": {
        "zone_code": "FZ-HYD-04",
        "name": "Dilsukhnagar - Saroornagar Lake Catchment",
        "severity": "high",
        "severity_color": "#B54708",
        "water_level_meters": 2.65,
        "danger_threshold_meters": 2.30,
        "evacuation_status": "High Alert & Sandbagging",
        "description": "Excess weir runoff from Saroornagar Lake spilling over surrounding colonies and arterial low-lying access links."
      },
      "geometry": {
        "type": "Polygon",
        "coordinates": [
          [
            [78.5200, 17.3520],
            [78.5350, 17.3540],
            [78.5410, 17.3630],
            [78.5320, 17.3710],
            [78.5180, 17.3660],
            [78.5140, 17.3590],
            [78.5200, 17.3520]
          ]
        ]
      }
    },
    {
      "type": "Feature",
      "id": "zone-hyd-05",
      "properties": {
        "zone_code": "FZ-HYD-05",
        "name": "Alwal - Old Alwal Lowlands",
        "severity": "medium",
        "severity_color": "#A16207",
        "water_level_meters": 1.85,
        "danger_threshold_meters": 2.20,
        "evacuation_status": "Active Monitoring & Drainage Pumping",
        "description": "Storm drain backflow inundating internal roads and low-lying basements. Heavy de-watering pumps deployed by municipal teams."
      },
      "geometry": {
        "type": "Polygon",
        "coordinates": [
          [
            [78.4980, 17.4980],
            [78.5130, 17.5020],
            [78.5210, 17.5120],
            [78.5110, 17.5210],
            [78.4950, 17.5170],
            [78.4920, 17.5060],
            [78.4980, 17.4980]
          ]
        ]
      }
    },
    {
      "type": "Feature",
      "id": "zone-hyd-06",
      "properties": {
        "zone_code": "FZ-HYD-06",
        "name": "Hitec City - Durgam Cheruvu Runoff Buffer",
        "severity": "low",
        "severity_color": "#3B7A57",
        "water_level_meters": 0.85,
        "danger_threshold_meters": 2.00,
        "evacuation_status": "Normal Regulated Drainage",
        "description": "Retention channels and lake automated sluice gates operating normally. Road networks clear with localized pooling under control."
      },
      "geometry": {
        "type": "Polygon",
        "coordinates": [
          [
            [78.3750, 17.4280],
            [78.3890, 17.4310],
            [78.3960, 17.4410],
            [78.3880, 17.4490],
            [78.3740, 17.4450],
            [78.3700, 17.4360],
            [78.3750, 17.4280]
          ]
        ]
      }
    }
  ]
}
