{
  "type": "FeatureCollection",
  "name": "Hyderabad_Emergency_Shelters_Mock",
  "crs": { "type": "name", "properties": { "name": "urn:ogc:def:crs:OGC:1.3:CRS84" } },
  "features": [
    {
      "type": "Feature",
      "id": "sh-hyd-01",
      "properties": {
        "name": "Kotla Vijaya Bhaskara Reddy Indoor Stadium Relief Center",
        "address": "Yousufguda Main Rd, Hyderabad, Telangana 500045",
        "capacity": 800,
        "occupancy": 520,
        "status": "open",
        "contact_person": "M. Srinivas (GHMC Camp In-Charge)",
        "contact_phone": "+91-9849100001",
        "supplies": {
          "food_packets": true,
          "clean_drinking_water": true,
          "medical_kit": true,
          "blankets": true,
          "power_backup": true,
          "sanitation_facilities": true
        }
      },
      "geometry": {
        "type": "Point",
        "coordinates": [78.4320, 17.4385]
      }
    },
    {
      "type": "Feature",
      "id": "sh-hyd-02",
      "properties": {
        "name": "Lal Bahadur Shastri Stadium Relief Camp",
        "address": "Fateh Maidan, Basheerbagh, Hyderabad, Telangana 500001",
        "capacity": 1200,
        "occupancy": 890,
        "status": "open",
        "contact_person": "K. V. Ramana (Camp Director)",
        "contact_phone": "+91-9849100002",
        "supplies": {
          "food_packets": true,
          "clean_drinking_water": true,
          "medical_kit": true,
          "blankets": true,
          "power_backup": true,
          "sanitation_facilities": true
        }
      },
      "geometry": {
        "type": "Point",
        "coordinates": [78.4740, 17.4010]
      }
    },
    {
      "type": "Feature",
      "id": "sh-hyd-03",
      "properties": {
        "name": "Saroornagar Indoor Stadium Evacuation Hub",
        "address": "Near Priyadarshini Park, Kothapet, Hyderabad, Telangana 500035",
        "capacity": 600,
        "occupancy": 410,
        "status": "open",
        "contact_person": "P. Sudhakar (Revenue Division Officer)",
        "contact_phone": "+91-9849100003",
        "supplies": {
          "food_packets": true,
          "clean_drinking_water": true,
          "medical_kit": true,
          "blankets": true,
          "power_backup": true,
          "sanitation_facilities": true
        }
      },
      "geometry": {
        "type": "Point",
        "coordinates": [78.5340, 17.3620]
      }
    },
    {
      "type": "Feature",
      "id": "sh-hyd-04",
      "properties": {
        "name": "Gachibowli Sports Complex Regional Relief Camp",
        "address": "Old Mumbai Hwy, Gachibowli, Hyderabad, Telangana 500032",
        "capacity": 1500,
        "occupancy": 340,
        "status": "open",
        "contact_person": "Col. N. Balaji (Emergency Coordinator)",
        "contact_phone": "+91-9849100004",
        "supplies": {
          "food_packets": true,
          "clean_drinking_water": true,
          "medical_kit": true,
          "blankets": true,
          "power_backup": true,
          "sanitation_facilities": true
        }
      },
      "geometry": {
        "type": "Point",
        "coordinates": [78.3490, 17.4430]
      }
    },
    {
      "type": "Feature",
      "id": "sh-hyd-05",
      "properties": {
        "name": "Amberpet Community Relief Hall",
        "address": "Near Amberpet Municipal Office, Hyderabad, Telangana 500013",
        "capacity": 400,
        "occupancy": 380,
        "status": "near_capacity",
        "contact_person": "Smt. Farzana Begum (Zonal Officer)",
        "contact_phone": "+91-9849100005",
        "supplies": {
          "food_packets": true,
          "clean_drinking_water": true,
          "medical_kit": true,
          "blankets": true,
          "power_backup": false,
          "sanitation_facilities": true
        }
      },
      "geometry": {
        "type": "Point",
        "coordinates": [78.5170, 17.3870]
      }
    }
  ]
}
